NORAD_CAT_ID,OBJECT_NAME,OBJECT_TYPE,EPOCH,MEAN_MOTION,ECCENTRICITY,INCLINATION,RA_OF_ASC_NODE,ARG_OF_PERICENTER,MEAN_ANOMALY,BSTAR,MEAN_MOTION_DOT,MEAN_MOTION_DDOT,TLE_LINE0,TLE_LINE1,TLE_LINE2,SEMIMAJOR_AXIS,PERIOD,APOGEE,PERIGEE,DECAYED
53404.0,STARLINK-4509,PAYLOAD,2024-08-20 00:43:50,15.08837377,0.0001277,53.2166,137.885,101.0241,259.0895,1.0505e-05,-1.21e-06,0.0,0 STARLINK-4509,1 53404U 22097S   24233.03044819 -.00000121  00000-0  10505-4 0  9999,2 53404  53.2166 137.8850 0001277 101.0241 259.0895 15.08837377113102,6917.888,95.438,540.637,538.87,0.0
53404.0,STARLINK-4509,PAYLOAD,2024-08-20 21:23:51,15.08837606,0.0001238,53.2167,134.0204,93.827,266.2864,0.0001308,1.794e-05,0.0,0 STARLINK-4509,1 53404U 22097S   24233.89156678  .00001794  00000-0  13080-3 0  9996,2 53404  53.2167 134.0204 0001238  93.8270 266.2864 15.08837606112742,6917.888,95.438,540.609,538.896,0.0
53404.0,STARLINK-4509,PAYLOAD,2024-08-21 02:10:00,15.08841776,0.0001229,53.2166,133.1287,88.1592,271.9541,0.00016323,2.311e-05,0.0,0 STARLINK-4509,1 53404U 22097S   24234.09028439  .00002311  00000-0  16323-3 0  9991,2 53404  53.2166 133.1287 0001229  88.1592 271.9541 15.08841776113262,6917.875,95.437,540.59,538.89,0.0
53404.0,STARLINK-4509,PAYLOAD,2024-08-21 22:50:02,15.08832261,0.0001292,53.217,129.2688,88.4067,271.7073,2.6253e-05,1.3e-06,0.0,0 STARLINK-4509,1 53404U 22097S   24234.95141834  .00000130  00000-0  26253-4 0  9992,2 53404  53.2170 129.2688 0001292  88.4067 271.7073 15.08832261112905,6917.904,95.438,540.663,538.875,0.0
